{"fetched_at":"2026-03-29T16:36:15Z","count":15609,"tles":[{"name":"STARLINK-31750","line1":"1 59552U 24074U   26087.71475476  .00001836  00000+0  76187-4 0  9997","line2":"2 59552  43.0040 236.1030 0001027 281.9109  78.1628 15.27594737108926","category":"Starlink"}]}