{
  "norad_id": 59552,
  "name": "STARLINK-31750",
  "history": [
    {
      "epoch": "2026-03-28T17:09:14.811264Z",
      "apogee_km": 483.7097450178089,
      "perigee_km": 482.3001920117986,
      "latitude_deg": 3.6960043730837086e-05,
      "longitude_deg": 152.66009551752995,
      "height_km": 482.6363343024518,
      "semi_major_axis_km": 6861.141968514804,
      "eccentricity": 0.00010272,
      "inclination_deg": 43.004,
      "raan_deg": 236.103,
      "arg_perigee_deg": 281.9109,
      "mean_anomaly_deg": 78.1628,
      "mean_motion_rev_day": 15.27594737
    }
  ]
}